NORAD_CAT_ID,OBJECT_NAME,OBJECT_TYPE,EPOCH,MEAN_MOTION,ECCENTRICITY,INCLINATION,RA_OF_ASC_NODE,ARG_OF_PERICENTER,MEAN_ANOMALY,BSTAR,MEAN_MOTION_DOT,MEAN_MOTION_DDOT,TLE_LINE0,TLE_LINE1,TLE_LINE2,SEMIMAJOR_AXIS,PERIOD,APOGEE,PERIGEE,DECAYED
49738.0,STARLINK-3143,PAYLOAD,2023-09-13 07:53:19,15.0884217,0.0001603,53.2164,266.9087,85.914,274.2035,0.00010373,1.363e-05,0.0,0 STARLINK-3143,1 49738U 21115Q   23256.32869891  .00001363  00000-0  10373-3 0  9995,2 49738  53.2164 266.9087 0001603  85.9140 274.2035 15.08842170 99512,6917.874,95.437,540.848,538.63,0.0
49738.0,STARLINK-3143,PAYLOAD,2023-09-13 17:25:38,15.08836882,0.0001586,53.2164,265.1237,86.2568,273.8605,2.6734e-05,1.37e-06,0.0,0 STARLINK-3143,1 49738U 21115Q   23256.72614427  .00000137  00000-0  26734-4 0  9999,2 49738  53.2164 265.1237 0001586  86.2568 273.8605 15.08836882 99575,6917.89,95.438,540.852,538.658,0.0
49738.0,STARLINK-3143,PAYLOAD,2023-09-14 01:22:35,15.08832748,0.0001876,53.2179,263.6395,102.4624,257.6579,-7.8053e-05,-1.53e-05,0.0,0 STARLINK-3143,1 49738U 21115Q   23257.05735107 -.00001530  00000-0 -78053-4 0  9996,2 49738  53.2179 263.6395 0001876 102.4624 257.6579 15.08832748 99628,6917.903,95.438,541.065,538.47,0.0
49738.0,STARLINK-3143,PAYLOAD,2023-09-14 06:08:44,15.08829987,0.0001686,53.2169,262.7458,99.9794,260.1388,-0.00010966,-2.032e-05,0.0,0 STARLINK-3143,1 49738U 21115Q   23257.25607481 -.00002032  00000-0 -10966-3 0  9997,2 49738  53.2169 262.7458 0001686  99.9794 260.1388 15.08829987 98542,6917.911,95.438,540.942,538.61,0.0
49738.0,STARLINK-3143,PAYLOAD,2023-09-14 17:16:26,15.08836975,0.0001761,53.218,260.6656,100.2456,259.8735,-6.81e-05,-1.372e-05,0.0,0 STARLINK-3143,1 49738U 21115Q   23257.71975130 -.00001372  00000-0 -68100-4 0  9997,2 49738  53.2180 260.6656 0001761 100.2456 259.8735 15.08836975 98611,6917.89,95.438,540.973,538.536,0.0
49738.0,STARLINK-3143,PAYLOAD,2023-09-15 04:24:08,15.088411,0.0001712,53.2175,258.5846,104.9098,255.2084,7.1375e-05,8.48e-06,0.0,0 STARLINK-3143,1 49738U 21115Q   23258.18342601  .00000848  00000-0  71375-4 0  9993,2 49738  53.2175 258.5846 0001712 104.9098 255.2084 15.08841100 99794,6917.877,95.437,540.926,538.558,0.0
49738.0,STARLINK-3143,PAYLOAD,2023-09-15 05:59:31,15.08841027,0.0001797,53.2175,258.2868,104.4441,255.675,8.3844e-05,1.047e-05,0.0,0 STARLINK-3143,1 49738U 21115Q   23258.24966573  .00001047  00000-0  83844-4 0  9996,2 49738  53.2175 258.2868 0001797 104.4441 255.6750 15.08841027 98695,6917.877,95.437,540.985,538.499,0.0
49738.0,STARLINK-3143,PAYLOAD,2023-09-15 23:28:46,15.08831022,0.0001724,53.2175,255.0155,97.0365,263.0823,0.00014276,1.984e-05,0.0,0 STARLINK-3143,1 49738U 21115Q   23258.97831182  .00001984  00000-0  14276-3 0  9995,2 49738  53.2175 255.0155 0001724  97.0365 263.0823 15.08831022 99915,6917.908,95.438,540.965,538.58,0.0
49738.0,STARLINK-3143,PAYLOAD,2023-09-16 09:01:04,15.08832289,0.0001544,53.2163,253.2299,98.3091,261.8076,0.00023192,3.404e-05,0.0,0 STARLINK-3143,1 49738U 21115Q   23259.37575023  .00003404  00000-0  23192-3 0  9995,2 49738  53.2163 253.2299 0001544  98.3091 261.8076 15.08832289 98866,6917.904,95.438,540.837,538.701,0.0
49738.0,STARLINK-3143,PAYLOAD,2023-09-17 08:51:51,15.08844201,0.0001502,53.2156,248.7694,98.1902,261.926,3.7198e-05,3.04e-06,0.0,0 STARLINK-3143,1 49738U 21115Q   23260.36934926  .00000304  00000-0  37198-4 0  9995,2 49738  53.2156 248.7694 0001502  98.1902 261.9260 15.08844201 99010,6917.868,95.437,540.772,538.693,0.0
49738.0,STARLINK-3143,PAYLOAD,2023-09-18 08:42:39,15.08819731,0.0001527,53.2157,244.3078,106.065,254.051,0.00043275,6.602e-05,0.0,0 STARLINK-3143,1 49738U 21115Q   23261.36295347  .00006602  00000-0  43275-3 0  9992,2 49738  53.2157 244.3078 0001527 106.0650 254.0510 15.08819731100277,6917.942,95.439,540.864,538.751,0.0
49738.0,STARLINK-3143,PAYLOAD,2023-09-19 02:11:53,15.08840867,0.0001501,53.2155,241.0365,99.6489,260.4672,5.6214e-05,6.07e-06,0.0,0 STARLINK-3143,1 49738U 21115Q   23262.09158805  .00000607  00000-0  56214-4 0  9997,2 49738  53.2155 241.0365 0001501  99.6489 260.4672 15.08840867100383,6917.878,95.437,540.781,538.704,0.0
49738.0,STARLINK-3143,PAYLOAD,2023-09-19 08:33:25,15.08849764,0.0001523,53.2161,239.8474,93.9385,266.1782,0.00011923,1.611e-05,0.0,0 STARLINK-3143,1 49738U 21115Q   23262.35654073  .00001611  00000-0  11923-3 0  9997,2 49738  53.2161 239.8474 0001523  93.9385 266.1782 15.08849764100427,6917.851,95.437,540.769,538.662,0.0
49738.0,STARLINK-3143,PAYLOAD,2023-09-20 02:02:40,15.08834718,0.0001591,53.216,236.5759,106.8938,253.2229,-4.0913e-05,-9.39e-06,0.0,0 STARLINK-3143,1 49738U 21115Q   23263.08519507 -.00000939  00000-0 -40913-4 0  9996,2 49738  53.2160 236.5759 0001591 106.8938 253.2229 15.08834718100537,6917.897,95.438,540.862,538.661,0.0
49738.0,STARLINK-3143,PAYLOAD,2023-09-20 06:48:50,15.08836298,0.0001561,53.2171,235.6832,97.915,262.2019,-1.0233e-05,-4.51e-06,0.0,0 STARLINK-3143,1 49738U 21115Q   23263.28391454 -.00000451  00000-0 -10233-4 0  9998,2 49738  53.2171 235.6832 0001561  97.9150 262.2019 15.08836298 99454,6917.892,95.438,540.837,538.677,0.0
49738.0,STARLINK-3143,PAYLOAD,2023-09-20 14:45:46,15.08833422,0.0001587,53.2173,234.1963,95.3131,264.8043,-3.1584e-05,-7.91e-06,0.0,0 STARLINK-3143,1 49738U 21115Q   23263.61511821 -.00000791  00000-0 -31584-4 0  9996,2 49738  53.2173 234.1963 0001587  95.3131 264.8043 15.08833422 99501,6917.9,95.438,540.863,538.668,0.0
49738.0,STARLINK-3143,PAYLOAD,2023-09-21 08:15:00,15.08831939,0.0001495,53.2175,230.9287,100.8788,259.2372,6.0006e-05,6.67e-06,0.0,0 STARLINK-3143,1 49738U 21115Q   23264.34376140  .00000667  00000-0  60006-4 0  9991,2 49738  53.2175 230.9287 0001495 100.8788 259.2372 15.08831939100725,6917.905,95.438,540.804,538.736,0.0
49738.0,STARLINK-3143,PAYLOAD,2023-09-22 04:55:01,15.08843758,0.0001474,53.2173,227.0633,108.4993,251.616,0.00017412,2.485e-05,0.0,0 STARLINK-3143,1 49738U 21115Q   23265.20487473  .00002485  00000-0  17412-3 0  9991,2 49738  53.2173 227.0633 0001474 108.4993 251.6160 15.08843758100851,6917.869,95.437,540.754,538.714,0.0
49738.0,STARLINK-3143,PAYLOAD,2023-09-22 06:30:24,15.08843063,0.0001444,53.2175,226.7662,105.4735,254.6417,0.00020339,2.951e-05,0.0,0 STARLINK-3143,1 49738U 21115Q   23265.27111516  .00002951  00000-0  20339-3 0  9990,2 49738  53.2175 226.7662 0001444 105.4735 254.6417 15.08843063 99752,6917.871,95.437,540.735,538.737,0.0
49738.0,STARLINK-3143,PAYLOAD,2023-09-23 03:10:25,15.08843833,0.0001332,53.2171,222.9001,101.0929,259.0213,0.00015821,2.231e-05,0.0,0 STARLINK-3143,1 49738U 21115Q   23266.13223716  .00002231  00000-0  15821-3 0  9993,2 49738  53.2171 222.9001 0001332 101.0929 259.0213 15.08843833100993,6917.869,95.437,540.655,538.812,0.0
49738.0,STARLINK-3143,PAYLOAD,2023-09-23 06:21:11,15.08848476,0.0001264,53.2167,222.3045,99.7291,260.3844,0.00017713,2.533e-05,0.0,0 STARLINK-3143,1 49738U 21115Q   23266.26471323  .00002533  00000-0  17713-3 0  9993,2 49738  53.2167 222.3045 0001264  99.7291 260.3844 15.08848476 99900,6917.854,95.437,540.594,538.845,0.0
49738.0,STARLINK-3143,PAYLOAD,2023-09-24 04:36:35,15.0884836,0.0001254,53.2171,218.1401,77.8205,282.2927,7.6526e-05,9.31e-06,0.0,0 STARLINK-3143,1 49738U 21115Q   23267.19207433  .00000931  00000-0  76526-4 0  9993,2 49738  53.2171 218.1401 0001254  77.8205 282.2927 15.08848360101153,6917.855,95.437,540.587,538.852,0.0
49738.0,STARLINK-3143,PAYLOAD,2023-09-24 06:11:58,15.08851902,0.0001349,53.2168,217.8434,90.1254,269.9893,4.6374e-05,4.5e-06,0.0,0 STARLINK-3143,1 49738U 21115Q   23267.25831290  .00000450  00000-0  46374-4 0  9998,2 49738  53.2168 217.8434 0001349  90.1254 269.9893 15.08851902100056,6917.844,95.437,540.642,538.776,0.0
49738.0,STARLINK-3143,PAYLOAD,2023-09-25 06:02:44,15.08854183,0.0001259,53.2157,213.3816,115.988,244.1242,5.4334e-05,5.77e-06,0.0,0 STARLINK-3143,1 49738U 21115Q   23268.25190739  .00000577  00000-0  54334-4 0  9990,2 49738  53.2157 213.3816 0001259 115.9880 244.1242 15.08854183101317,6917.837,95.437,540.573,538.831,0.0
49738.0,STARLINK-3143,PAYLOAD,2023-09-25 13:59:40,15.08854314,0.0001263,53.2159,211.8945,107.259,252.8541,5.7635e-05,6.3e-06,0.0,0 STARLINK-3143,1 49738U 21115Q   23268.58310482  .00000630  00000-0  57635-4 0  9992,2 49738  53.2159 211.8945 0001263 107.2590 252.8541 15.08854314100258,6917.837,95.437,540.575,538.828,0.0
49738.0,STARLINK-3143,PAYLOAD,2023-09-26 02:42:45,15.08859983,0.0001524,53.2161,209.5136,113.984,246.1312,0.00019614,2.837e-05,0.0,0 STARLINK-3143,1 49738U 21115Q   23269.11302269  .00002837  00000-0  19614-3 0  9991,2 49738  53.2161 209.5136 0001524 113.9840 246.1312 15.08859983100337,6917.819,95.436,540.739,538.63,0.0
49738.0,STARLINK-3143,PAYLOAD,2023-09-27 02:33:33,15.08838909,0.0001157,53.2161,205.0567,98.6538,261.4585,-8.463e-05,-1.634e-05,0.0,0 STARLINK-3143,1 49738U 21115Q   23270.10663534 -.00001634  00000-0 -84630-4 0  9994,2 49738  53.2161 205.0567 0001157  98.6538 261.4585 15.08838909101597,6917.884,95.438,540.549,538.948,0.0
49738.0,STARLINK-3143,PAYLOAD,2023-09-28 02:24:21,15.08828644,0.0001147,53.2168,200.5988,104.7505,255.3614,-0.00016632,-2.933e-05,0.0,0 STARLINK-3143,1 49738U 21115Q   23271.10024762 -.00002933  00000-0 -16632-3 0  9998,2 49738  53.2168 200.5988 0001147 104.7505 255.3614 15.08828644101740,6917.915,95.438,540.574,538.987,0.0
49738.0,STARLINK-3143,PAYLOAD,2023-09-28 18:18:13,15.08816354,9.15e-05,53.2156,197.6198,88.4337,271.676,0.0006612,0.00010244,0.0,0 STARLINK-3143,1 49738U 21115Q   23271.76265602  .00010244  00000-0  66120-3 0  9999,2 49738  53.2156 197.6198 0000915  88.4337 271.6760 15.08816354100735,6917.953,95.439,540.451,539.185,0.0
49738.0,STARLINK-3143,PAYLOAD,2023-09-29 05:25:54,15.08843637,0.0001692,53.2166,195.5421,75.1262,284.9918,0.000243,3.582e-05,0.0,0 STARLINK-3143,1 49738U 21115Q   23272.22632154  .00003582  00000-0  24300-3 0  9992,2 49738  53.2166 195.5421 0001692  75.1262 284.9918 15.08843637101912,6917.869,95.437,540.905,538.564,0.0
